INTELSAT NEW DAWN       
1 37392U 11016A   20360.48521535  .00000174  00000-0  00000-0 0  9999
2 37392   0.0100   2.7393 0001251 232.4190  66.7727  1.00272491 33255
YAHSAT 1A               
1 37393U 11016B   20360.49702260  .00000120  00000-0  00000-0 0  9998
2 37393   0.0216 336.1360 0003500 275.4622  74.2928  1.00268140 22350
SBIRS GEO-1 (USA 230)   
1 37481U 11019A   20360.46854913  .00000010  00000-0  00000-0 0  9997
2 37481   1.8961 352.4668 0001920 277.8988  58.9485  1.00272035 35349
TELSTAR 14R             
1 37602U 11021A   20360.48315241 -.00000261  00000-0  00000-0 0  9992
2 37602   0.0150   0.7554 0002033 330.2043 234.4411  1.00270614 35772
GSAT-8                  
1 37605U 11022A   20360.49702260  .00000103  00000-0  00000-0 0  9992
2 37605   0.0199  60.9267 0008807 208.3163  59.2347  1.00272705 33165
ST-2                    
1 37606U 11022B   20360.51324887 -.00000193  00000-0  00000-0 0  9991
2 37606   0.0170  74.3470 0001805 206.1514  86.7640  1.00271982 35223
CHINASAT 10 (ZX 10)     
1 37677U 11026A   20360.61046560 -.00000334  00000-0  00000-0 0  9990
2 37677   0.0349 232.3511 0004549 324.1280 228.4003  1.00273332 34936
TIANLIAN 1-02           
1 37737U 11032A   20360.59493645  .00000001  00000-0  00000-0 0  9991
2 37737   2.7531  75.2159 0014780 119.3399 285.1816  1.00275081 24170
GSAT-12                 
1 37746U 11034A   20360.51220203 -.00000147  00000-0  00000-0 0  9995
2 37746   0.0487 102.0602 0006305 342.9072 276.9235  1.00272208 23449
SES-3                   
1 37748U 11035A   20360.53517576 -.00000083  00000-0  00000-0 0  9991
2 37748   0.0249 328.2028 0002747 313.0690 262.8863  1.00272320 34563
KAZSAT-2                
1 37749U 11035B   20360.51289993 -.00000178  00000-0  00000-0 0  9994
2 37749   0.0448 182.5189 0001045 147.5913  35.5121  1.00267836 33334
BEIDOU 9                
1 37763U 11038A   20360.58367642  .00000039  00000-0  00000+0 0  9992
2 37763  54.4486 183.6144 0072623 223.0807 350.8626  1.00254943 34597
ASTRA 1N                
1 37775U 11041A   20360.49076991  .00000138  00000-0  00000-0 0  9994
2 37775   0.0524  46.9310 0002445 291.3407 312.0514  1.00272871 24477
BSAT-3C (JCSAT-110R)    
1 37776U 11041B   20360.61057494 -.00000332  00000-0  00000-0 0  9993
2 37776   0.0177 336.6443 0000651 353.3700  94.3168  1.00269611 30436
PAKSAT-1R               
1 37779U 11042A   20360.47966079  .00000172  00000-0  00000-0 0  9990
2 37779   0.0125  97.6365 0004276 232.3018 335.1919  1.00268690 34423
CHINASAT 1A (ZX 1A)     
1 37804U 11047A   20360.01910947 -.00000321  00000-0  00000-0 0  9994
2 37804   0.0063 241.8483 0002851  62.0598 286.8005  1.00270917 34013
COSMOS 2473             
1 37806U 11048A   20360.51229951 -.00000115  00000-0  00000-0 0  9991
2 37806   0.5098  97.6439 0002043 127.2641  37.2062  1.00261551 34017
SES-2                   
1 37809U 11049A   20360.55006250 -.00000177  00000-0  00000-0 0  9992
2 37809   0.0188 322.1128 0003033 309.8084 293.6168  1.00271779 33911
ARABSAT-5C              
1 37810U 11049B   20360.49076991  .00000142  00000-0  00000-0 0  9997
2 37810   0.0627  28.7405 0003325 205.0278  57.3431  1.00273288 34000
EUTELSAT 7 WEST A       
1 37816U 11051A   20360.42234885 -.00000042  00000-0  00000-0 0  9997
2 37816   0.0667  32.3664 0005145 199.3938   7.3868  1.00272141 33845
QUETZSAT 1              
1 37826U 11054A   20360.48036084 -.00000223  00000-0  00000-0 0  9999
2 37826   0.0227  46.8357 0002870 224.1823 279.3568  1.00272910 29846
INTELSAT 18 (IS-18)     
1 37834U 11056A   20360.58938510  .00000072  00000-0  00000-0 0  9997
2 37834   0.0185 357.2046 0001811 285.1980 204.3290  1.00272217 33864
EUTELSAT 16A            
1 37836U 11057A   20360.49876767  .00000122  00000-0  00000-0 0  9991
2 37836   0.0659  20.3663 0004831 259.7158   9.9281  1.00271523 25920
VIASAT-1                
1 37843U 11059A   20360.54447939 -.00000005  00000-0  00000-0 0  9993
2 37843   0.0216 347.8455 0002690 280.3761 267.1931  1.00271248 27278
ASIASAT 7               
1 37933U 11069A   20360.61193177 -.00000316  00000-0  00000-0 0  9999
2 37933   0.0229  95.1386 0001229 135.8115 189.4310  1.00271906 24806
BEIDOU 10               
1 37948U 11073A   20360.48987421 -.00000165  00000-0  00000-0 0  9990
2 37948  51.2645 295.6780 0071056 216.3208 212.5236  1.00292107 33351
LUCH 5A                 
1 37951U 11074B   20360.64945194 -.00000030  00000-0  00000-0 0  9995
2 37951   3.7038 109.5868 0001442 181.5282 204.2095  1.00273332 33147
NIGCOMSAT 1R            
1 38014U 11077A   20360.47966079  .00000163  00000-0  00000-0 0  9991
2 38014   0.0101 232.7727 0001576  98.5339 338.2949  1.00273108 32900
FENGYUN 2F              
1 38049U 12002A   20360.58984216 -.00000341  00000-0  00000-0 0  9992
2 38049   2.5055  82.9765 0003228   7.1827 329.0149  1.00266360 32838
WGS F4 (USA 233)        
1 38070U 12003A   20360.51333611 -.00000196  00000-0  00000-0 0  9995
2 38070   0.0211  28.6784 0000601 213.5670 125.4236  1.00269222 24092
SES-4                   
1 38087U 12007A   20360.36368913 -.00000150  00000-0  00000-0 0  9993
2 38087   0.0094 357.4180 0002652 280.5551 285.2855  1.00272522 32191
BEIDOU 11               
1 38091U 12008A   20360.64376844  .00000074  00000-0  00000-0 0  9996
2 38091   1.8859  71.0342 0003472 232.0109  82.0832  1.00268777 32426
MUOS-1                  
1 38093U 12009A   20360.53804660 -.00000110  00000-0  00000-0 0  9991
2 38093   2.5517  14.5718 0054400 355.7400 177.9002  1.00271216 32391
INTELSAT 22 (IS-22)     
1 38098U 12011A   20360.51002112 -.00000040  00000-0  00000-0 0  9991
2 38098   0.0262  42.9459 0002934 231.8496  75.3787  1.00271026 31767
APSTAR 7                
1 38107U 12013A   20360.51098073 -.00000083  00000-0  00000-0 0  9992
2 38107   0.0313  96.8370 0002665 172.0230  86.0756  1.00271732 31756
YAHSAT 1B               
1 38245U 12016A   20360.49702260  .00000145  00000-0  00000-0 0  9993
2 38245   0.0180 357.4505 0002432 271.2991  52.2523  1.00268454 25549
AEHF-2 (USA 235)        
1 38254U 12019A   20360.48219281 -.00000258  00000-0  00000-0 0  9997
2 38254   2.3142  52.6891 0000840 162.7551 345.0697  1.00269551 30800
JCSAT-13                
1 38331U 12023A   20360.52040222 -.00000338  00000-0  00000-0 0  9999
2 38331   0.0179  15.1449 0001959 244.3411 146.3406  1.00269770 31475
VINASAT-2               
1 38332U 12023B   20360.52197247 -.00000310  00000-0  00000-0 0  9990
2 38332   0.0177 321.2431 0002296 303.3918 149.6020  1.00273282 26609
NIMIQ 6                 
1 38342U 12026A   20360.47748206 -.00000155  00000-0  00000-0 0  9992
2 38342   0.0319 299.9683 0002263 328.4135 266.8587  1.00271718 30372
CHINASAT 2A (ZX 2A)     
1 38352U 12028A   20360.51525529 -.00000275  00000-0  00000-0 0  9994
2 38352   0.0453 135.3818 0002089 132.0253 110.8183  1.00273321 31329
INTELSAT 19 (IS-19)     
1 38356U 12030A   20360.57271662 -.00000038  00000-0  00000-0 0  9990
2 38356   0.0117  54.6525 0003165 224.3107 187.7583  1.00272363 30418
ECHOSTAR 17             
1 38551U 12035A   20360.53331242 -.00000057  00000-0  00000-0 0  9990
2 38551   0.0239  20.3932 0002296 253.4612 265.5252  1.00271936 31010
METEOSAT-10 (MSG-3)     
1 38552U 12035B   20360.28221354  .00000080  00000-0  00000-0 0  9990
2 38552   1.2517 354.2591 0001204 221.4808 349.4621  1.00278232 30807
SES-5                   
1 38652U 12036A   20360.44285616  .00000052  00000-0  00000-0 0  9990
2 38652   0.0433  78.6062 0002068 184.1618 356.0537  1.00269378 24449
TIANLIAN 1-03           
1 38730U 12040A   20360.20326975  .00000143  00000-0  00000-0 0  9991
2 38730   0.6810  99.6279 0004749 248.6373 199.5677  1.00276096 30937
INTELSAT 20 (IS-20)     
1 38740U 12043A   20360.50932324 -.00000006  00000-0  00000-0 0  9998
2 38740   0.0103  94.1082 0002200  90.5233 161.6944  1.00270863 30694
HYLAS 2                 
1 38741U 12043B   20360.50182094  .00000173  00000-0  00000-0 0  9994
2 38741   0.0287 286.9087 0001914 345.4254  33.8037  1.00271407 30711
INTELSAT 21 (IS-21)     
1 38749U 12045A   20360.48411200 -.00000266  00000-0  00000-0 0  9999
2 38749   0.0007  45.5511 0002500 228.2785 296.9050  1.00272498 30492
ASTRA 2F                
1 38778U 12051A   20360.50129752  .00000168  00000-0  00000-0 0  9999
2 38778   0.0688 231.4591 0004484  15.5801  56.0725  1.00271273 21126
GSAT-10                 
1 38779U 12051B   20360.51220203 -.00000147  00000-0  00000-0 0  9992
2 38779   0.0124  25.2214 0003575 229.8584 106.8045  1.00272320 30067
INTELSAT 23 (IS-23)     
1 38867U 12057A   20360.48507160 -.00000266  00000-0  00000-0 0  9994
2 38867   0.0179   2.1613 0002242 263.6477 310.2695  1.00267248 29938
BEIDOU 16               
1 38953U 12059A   20360.58417182 -.00000158  00000-0  00000-0 0  9997
2 38953   1.5556  84.6929 0008629 256.5207  47.6704  1.00270040 29993
LUCH 5B                 
1 38977U 12061A   20360.45396740 -.00000121  00000-0  00000-0 0  9998
2 38977   6.1469  66.4057 0001862 209.3658 325.7092  1.00272060 30122
YAMAL 300K              
1 38978U 12061B   20360.60659878  .00000090  00000-0  00000-0 0  9994
2 38978   0.0244 278.3084 0001789 306.7650 270.8277  1.00271550 29590
STAR ONE C3             
1 38991U 12062A   20360.48070979 -.00000231  00000-0  00000-0 0  9993
2 38991   0.0340  90.2310 0001745 171.2072 291.0550  1.00274021 29719
EUTELSAT 21B            
1 38992U 12062B   20360.49076991  .00000148  00000-0  00000-0 0  9991
2 38992   0.0659  20.4634 0002789 257.2026  15.0548  1.00271714 29784
ECHOSTAR 16             
1 39008U 12065A   20360.48423257 -.00000263  00000-0  00000-0 0  9992
2 39008   0.0011   9.1977 0002091 261.2894 296.7828  1.00273814 29572
CHINASAT 12 (ZX 12)     
1 39017U 12067A   20360.51316162 -.00000189  00000-0  00000-0 0  9991
2 39017   0.0266  91.5072 0003222 179.0680  96.1426  1.00272349 29456
